OBJECT_NAME,OBJECT_ID,EPOCH,MEAN_MOTION,ECCENTRICITY,INCLINATION,RA_OF_ASC_NODE,ARG_OF_PERICENTER,MEAN_ANOMALY,EPHEMERIS_TYPE,CLASSIFICATION_TYPE,NORAD_CAT_ID,ELEMENT_SET_NO,REV_AT_EPOCH,BSTAR,MEAN_MOTION_DOT,MEAN_MOTION_DDOT
STARLINK-35864,2025-298G,2026-06-27T20:45:08.112672,14.98321047,.00033482,70.0005,96.5454,260.1611,99.9171,0,U,67081,999,2972,.79857789E-3,.9446E-4,0
STARLINK-36035,2025-298H,2026-06-27T20:57:07.676928,14.98335766,.0002556,70.0024,96.5772,274.0792,86.0074,0,U,67082,999,2972,.17857992E-3,.2039E-4,0
STARLINK-36170,2025-298J,2026-06-27T21:33:11.580480,14.98327124,.00025305,70.0015,96.6545,267.2315,92.8555,0,U,67083,999,2971,.17314155E-3,.1973E-4,0
STARLINK-36166,2025-298K,2026-06-27T21:51:13.641120,14.98332470,.00023433,70.0018,96.6998,268.1457,91.9434,0,U,67084,999,2972,.19502876E-3,.2235E-4,0
STARLINK-35794,2025-298L,2026-06-27T21:09:09.619776,14.98350680,.00029127,70.0018,96.6066,265.8447,94.2379,0,U,67085,999,2972,.48802718E-3,.5738E-4,0
STARLINK-35841,2025-298M,2026-06-27T21:39:12.418848,14.98330823,.00026467,70.0017,96.6696,266.8437,93.2419,0,U,67086,999,2972,.17538688E-3,.2E-4,0
STARLINK-35842,2025-298N,2026-06-27T21:03:21.935808,14.98332510,.00026121,70.0036,96.6072,253.2014,106.8859,0,U,67087,999,2972,-.87993443E-4,-.1143E-4,0
STARLINK-35882,2025-298P,2026-06-27T20:21:06.021504,14.98336058,.00032744,70.0016,96.8813,253.6278,106.4521,0,U,67088,999,2971,.2636422E-3,.3055E-4,0
STARLINK-35763,2025-298Q,2026-06-27T20:27:21.068352,14.98334262,.00027943,70.0017,96.9021,270.3727,89.7112,0,U,67089,999,2971,.18785249E-3,.2149E-4,0
STARLINK-36060,2025-298R,2026-06-27T21:15:23.997888,14.98332627,.00024595,70.0022,96.6162,263.0987,96.9893,0,U,67090,999,2972,.1481406E-3,.1675E-4,0
STARLINK-36097,2025-298S,2026-06-27T21:30:40.830624,15.40527132,.00088509,69.9938,80.2215,217.9384,142.1174,0,U,67091,999,3013,.25158565E-2,.103819E-2,0
STARLINK-35792,2025-298T,2026-06-27T23:15:35.146656,14.98342814,.00026539,70.0013,96.5054,264.8051,95.2805,0,U,67092,999,2973,.15389459E-3,.1744E-4,0
STARLINK-35784,2025-298U,2026-06-27T20:51:06.581952,14.98332285,.00030513,70.0013,96.5596,280.9292,79.1524,0,U,67093,999,2972,.8767894E-5,.12E-6,0
STARLINK-36202,2025-298V,2026-06-27T20:39:05.712192,14.98335714,.00029952,70.0015,96.5311,263.3827,96.6991,0,U,67094,999,2972,.27143159E-3,.3148E-4,0
STARLINK-36227,2025-298W,2026-06-27T21:09:23.134464,14.98333885,.00030692,70.0019,96.6003,251.1433,108.9394,0,U,67095,999,2972,.20870031E-3,.2398E-4,0
STARLINK-36228,2025-298X,2026-06-27T21:27:10.916640,14.98334660,.0002362,70.0017,96.6389,269.3674,90.7215,0,U,67096,999,2972,.26498108E-3,.307E-4,0
STARLINK-36222,2025-298Y,2026-06-27T21:45:12.904704,14.98333617,.00028152,70.0016,96.6824,269.2670,90.8166,0,U,67097,999,2972,.18248125E-3,.2085E-4,0
STARLINK-36205,2025-298Z,2026-06-27T21:03:08.642304,14.98349095,.00029014,70.0023,96.5913,272.4596,87.6231,0,U,67098,999,2972,.3016005E-3,.3509E-4,0
STARLINK-36193,2025-298AA,2026-06-27T20:45:21.981600,14.98346407,.00031568,70.0019,96.5569,254.7884,105.2926,0,U,67099,999,2972,.92385606E-3,.10952E-3,0
STARLINK-36215,2025-298AB,2026-06-27T21:15:09.614880,14.98333220,.00027455,70.0020,96.6099,264.0976,95.9871,0,U,67100,999,2972,.17686562E-3,.2018E-4,0
STARLINK-36200,2025-298AC,2026-06-27T20:15:19.858176,14.98331608,.0002585,70.0019,96.8717,268.9002,91.1861,0,U,67101,999,2971,.17273062E-3,.1969E-4,0
STARLINK-36255,2025-299A,2026-06-27T17:25:49.461888,15.27595707,.00017414,42.9982,267.6779,276.5036,83.5617,0,U,67102,999,2994,.57089134E-3,.15488E-3,0
STARLINK-36256,2025-299B,2026-06-27T17:16:34.494816,15.27586720,.0001737,43.0009,267.6344,285.0189,75.0470,0,U,67103,999,2994,.43559498E-3,.11746E-3,0
STARLINK-36258,2025-299C,2026-06-27T22:19:22.968480,15.27579899,.00007279,42.9971,266.6212,353.3684,6.7158,0,U,67104,999,2997,.63541921E-3,.17264E-3,0
STARLINK-36261,2025-299D,2026-06-27T15:46:07.071456,15.27593373,.00016277,42.9998,268.0230,282.0427,78.0242,0,U,67105,999,2993,.56180012E-3,.15236E-3,0
STARLINK-36259,2025-299E,2026-06-27T22:56:10.134240,15.27588529,.00017038,43.0017,265.9570,268.5010,91.5647,0,U,67106,999,2998,.31713198E-3,.8477E-4,0
STARLINK-36196,2025-299F,2026-06-27T15:47:57.004224,15.27524262,.00012368,42.9983,268.0267,270.7411,89.3299,0,U,67107,999,2993,.38706963E-3,.10386E-3,0
STARLINK-36208,2025-299G,2026-06-27T22:52:29.190432,15.27579910,.00016516,43.0028,265.9331,264.9923,95.0740,0,U,67108,999,2998,.50729457E-3,.13723E-3,0
STARLINK-35764,2025-299H,2026-06-27T13:51:36.314496,15.27584569,.00019928,43.0030,268.2777,260.4935,99.5692,0,U,67109,999,3101,.50461711E-3,.13652E-3,0
STARLINK-35781,2025-299J,2026-06-27T22:26:47.914656,15.27588804,.00013884,42.9985,266.6640,288.0223,72.0477,0,U,67110,999,2997,.86983394E-3,.23757E-3,0
