STARLINK-35864          
1 67081U 25298G   26178.86467723  .00009446  00000+0  79858-3 0  9997
2 67081  70.0005  96.5454 0003348 260.1611  99.9171 14.98321047 29729
STARLINK-36035          
1 67082U 25298H   26178.87300552  .00002039  00000+0  17858-3 0  9998
2 67082  70.0024  96.5772 0002556 274.0792  86.0074 14.98335766 29720
STARLINK-36170          
1 67083U 25298J   26178.89805070  .00001973  00000+0  17314-3 0  9999
2 67083  70.0015  96.6545 0002530 267.2315  92.8555 14.98327124 29714
STARLINK-36166          
1 67084U 25298K   26178.91057455  .00002235  00000+0  19503-3 0  9993
2 67084  70.0018  96.6998 0002343 268.1457  91.9434 14.98332470 29726
STARLINK-35794          
1 67085U 25298L   26178.88136134  .00005738  00000+0  48803-3 0  9998
2 67085  70.0018  96.6066 0002912 265.8447  94.2379 14.98350680 29725
STARLINK-35841          
1 67086U 25298M   26178.90222707  .00002000  00000+0  17539-3 0  9995
2 67086  70.0017  96.6696 0002646 266.8437  93.2419 14.98330823 29729
STARLINK-35842          
1 67087U 25298N   26178.87733722 -.00001143  00000+0 -87993-4 0  9997
2 67087  70.0036  96.6072 0002612 253.2014 106.8859 14.98332510 29727
STARLINK-35882          
1 67088U 25298P   26178.84798636  .00003055  00000+0  26364-3 0  9996
2 67088  70.0016  96.8813 0003274 253.6278 106.4521 14.98336058 29714
STARLINK-35763          
1 67089U 25298Q   26178.85232718  .00002149  00000+0  18785-3 0  9993
2 67089  70.0017  96.9021 0002794 270.3727  89.7112 14.98334262 29713
STARLINK-36060          
1 67090U 25298R   26178.88569442  .00001675  00000+0  14814-3 0  9997
2 67090  70.0022  96.6162 0002459 263.0987  96.9893 14.98332627 29729
STARLINK-36097          
1 67091U 25298S   26178.89630591  .00103819  00000+0  25159-2 0  9999
2 67091  69.9938  80.2215 0008850 217.9384 142.1174 15.40527132 30139
STARLINK-35792          
1 67092U 25298T   26178.96915679  .00001744  00000+0  15389-3 0  9990
2 67092  70.0013  96.5054 0002653 264.8051  95.2805 14.98342814 29732
STARLINK-35784          
1 67093U 25298U   26178.86882618  .00000012  00000+0  87679-5 0  9996
2 67093  70.0013  96.5596 0003051 280.9292  79.1524 14.98332285 29722
STARLINK-36202          
1 67094U 25298V   26178.86048278  .00003148  00000+0  27143-3 0  9994
2 67094  70.0015  96.5311 0002995 263.3827  96.6991 14.98335714 29727
STARLINK-36227          
1 67095U 25298W   26178.88151776  .00002398  00000+0  20870-3 0  9991
2 67095  70.0019  96.6003 0003069 251.1433 108.9394 14.98333885 29723
STARLINK-36228          
1 67096U 25298X   26178.89387635  .00003070  00000+0  26498-3 0  9998
2 67096  70.0017  96.6389 0002362 269.3674  90.7215 14.98334660 29724
STARLINK-36222          
1 67097U 25298Y   26178.90639936  .00002085  00000+0  18248-3 0  9994
2 67097  70.0016  96.6824 0002815 269.2670  90.8166 14.98333617 29723
STARLINK-36205          
1 67098U 25298Z   26178.87718336  .00003509  00000+0  30160-3 0  9992
2 67098  70.0023  96.5913 0002901 272.4596  87.6231 14.98349095 29723
STARLINK-36193          
1 67099U 25298AA  26178.86483775  .00010952  00000+0  92386-3 0  9996
2 67099  70.0019  96.5569 0003156 254.7884 105.2926 14.98346407 29724
STARLINK-36215          
1 67100U 25298AB  26178.88552795  .00002018  00000+0  17687-3 0  9995
2 67100  70.0020  96.6099 0002745 264.0976  95.9871 14.98333220 29720
STARLINK-36200          
1 67101U 25298AC  26178.84397984  .00001969  00000+0  17273-3 0  9994
2 67101  70.0019  96.8717 0002585 268.9002  91.1861 14.98331608 29717
STARLINK-36255          
1 67102U 25299A   26178.72626692  .00015488  00000+0  57089-3 0  9994
2 67102  42.9982 267.6779 0001741 276.5036  83.5617 15.27595707 29940
STARLINK-36256          
1 67103U 25299B   26178.71984369  .00011746  00000+0  43559-3 0  9992
2 67103  43.0009 267.6344 0001737 285.0189  75.0470 15.27586720 29948
STARLINK-36258          
1 67104U 25299C   26178.93012695  .00017264  00000+0  63542-3 0  9996
2 67104  42.9971 266.6212 0000727 353.3684   6.7158 15.27579899 29971
STARLINK-36261          
1 67105U 25299D   26178.65702629  .00015236  00000+0  56180-3 0  9996
2 67105  42.9998 268.0230 0001627 282.0427  78.0242 15.27593373 29935
STARLINK-36259          
1 67106U 25299E   26178.95567285  .00008477  00000+0  31713-3 0  9991
2 67106  43.0017 265.9570 0001703 268.5010  91.5647 15.27588529 29986
STARLINK-36196          
1 67107U 25299F   26178.65829866  .00010386  00000+0  38707-3 0  9997
2 67107  42.9983 268.0267 0001236 270.7411  89.3299 15.27524262 29932
STARLINK-36208          
1 67108U 25299G   26178.95311563  .00013723  00000+0  50729-3 0  9997
2 67108  43.0028 265.9331 0001651 264.9923  95.0740 15.27579910 29987
STARLINK-35764          
1 67109U 25299H   26178.57750364  .00013652  00000+0  50462-3 0  9997
2 67109  43.0030 268.2777 0001992 260.4935  99.5692 15.27584569 31011
STARLINK-35781          
1 67110U 25299J   26178.93527679  .00023757  00000+0  86983-3 0  9994
2 67110  42.9985 266.6640 0001388 288.0223  72.0477 15.27588804 29971
